METHANESAT              
1 59101U 24043D   25353.79423191  .00001784  00000+0  16077-3 0  9996
2 59101  97.8219 119.3887 0009380 248.2572 111.7652 14.96848020 97800
GOSAT-GW (IBUKI GW)     
1 64694U 25141A   25355.16877499  .00000542  00000+0  10391-3 0  9990
2 64694  98.0433 290.5297 0001406  85.7321 274.4044 14.67560365 25734
GHGSAT-C1               
1 46278U 20061G   25355.18081972  .00018887  00000+0  24100-3 0  9993
2 46278  97.2311  70.9538 0001493  22.6441 337.4881 15.59330959295638
GHGSAT-C12              
1 64529U 25135B   25355.06055178  .00003047  00000+0  14994-3 0  9997
2 64529  97.4618 106.8346 0006485  78.8218 281.3745 15.18735276 27776
GHGSAT-C13              
1 64548U 25135W   25355.08237970  .00002565  00000+0  12404-3 0  9990
2 64548  97.4643 107.1655 0002141  56.4390 303.7049 15.19509739 27792
GHGSAT-C2               
1 47509U 21006DA  25355.10929763  .00004728  00000+0  14053-3 0  9997
2 47509  97.2431  40.4351 0007031  89.6497 270.5552 15.35212678272506
GHGSAT-C3               
1 52737U 22057F   25355.17645352  .00005175  00000+0  17291-3 0  9993
2 52737  97.6346 129.8333 0007048  41.9830 318.1950 15.31464920198262
GHGSAT-C4               
1 52746U 22057Q   25355.19554091  .00005244  00000+0  17524-3 0  9990
2 52746  97.6275 128.8637 0007006  28.6609 331.5015 15.31455704198271
GHGSAT-C5               
1 52744U 22057N   25355.14750399  .00005190  00000+0  17350-3 0  9999
2 52744  97.6435 131.1696 0007980  37.6928 322.4870 15.31443216198266
GHGSAT-C6               
1 56204U 23054AC  25355.22090017  .00010579  00000+0  21034-3 0  9996
2 56204  97.3180 257.5450 0007351 347.7606  12.3464 15.47111445150889
GHGSAT-C7               
1 56209U 23054AH  25355.21601187  .00008088  00000+0  17063-3 0  9995
2 56209  97.3138 256.7434 0007524 338.7852  21.3084 15.45457007150866
GHGSAT-C8               
1 56186U 23054J   25355.19371164  .00010029  00000+0  19942-3 0  9991
2 56186  97.3143 256.9411 0005985  15.6020 344.5413 15.47132799150866
SENTINEL-5P             
1 42969U 17064A   25355.08418100  .00000042  00000+0  40989-4 0  9999
2 42969  98.7797 293.5947 0001015  90.7517 269.3776 14.19519327424297
ENMAP                   
1 52159U 22033C   25355.22361656  .00000089  00000+0  20631-4 0  9995
2 52159  97.9800  75.0161 0001287  84.1816 275.9540 14.74955594200426
PRISMA                  
1 44072U 19015A   25355.16184292  .00000716  00000+0  93177-4 0  9990
2 44072  97.8698  67.5003 0001236  83.3944 276.7411 14.83634666365650
SENTINEL-2A             
1 40697U 15028A   25355.17274919  .00000147  00000+0  72880-4 0  9992
2 40697  98.5743  67.5870 0001072  88.8104 271.3202 14.30808633548275
SENTINEL-2B             
1 42063U 17013A   25355.16553491  .00000128  00000+0  65380-4 0  9997
2 42063  98.5713  67.4935 0001192  93.9365 266.1954 14.30813947459182
SENTINEL-2C             
1 60989U 24157A   25355.20060756  .00000107  00000+0  57471-4 0  9992
2 60989  98.5673  67.5610 0001195  95.4997 264.6322 14.30820648 67538
LANDSAT 8               
1 39084U 13008A   25355.10272362  .00000296  00000+0  75817-4 0  9997
2 39084  98.2061  63.0524 0001076  91.0858 269.0464 14.57110319671969
LANDSAT 9               
1 49260U 21088A   25355.13716213  .00000307  00000+0  78219-4 0  9994
2 49260  98.2083  63.1261 0001103  91.6147 268.5177 14.57105787225072
